{
    "links": {
        "self": "http://www.neowsapp.com/rest/v1/neo/3836301?api_key=iIulBulltgU6a56xZRHN4H3l9WmuAYTsLGpBGhQ2"
    },
    "id": "3836301",
    "neo_reference_id": "3836301",
    "name": "(2018 WM1)",
    "designation": "2018 WM1",
    "nasa_jpl_url": "http://ssd.jpl.nasa.gov/sbdb.cgi?sstr=3836301",
    "absolute_magnitude_h": 25.5,
    "estimated_diameter": {
        "kilometers": {
            "estimated_diameter_min": 0.0211132445,
            "estimated_diameter_max": 0.0472106499
        },
        "meters": {
            "estimated_diameter_min": 21.113244479,
            "estimated_diameter_max": 47.2106498806
        },
        "miles": {
            "estimated_diameter_min": 0.0131191578,
            "estimated_diameter_max": 0.0293353287
        },
        "feet": {
            "estimated_diameter_min": 69.2691770164,
            "estimated_diameter_max": 154.8905885541
        }
    },
    "is_potentially_hazardous_asteroid": false,
    "close_approach_data": [
        {
            "close_approach_date": "2018-11-25",
            "close_approach_date_full": "2018-Nov-25 23:05",
            "epoch_date_close_approach": 1543187100000,
            "relative_velocity": {
                "kilometers_per_second": "13.2265573761",
                "kilometers_per_hour": "47615.606553839",
                "miles_per_hour": "29586.4861945229"
            },
            "miss_distance": {
                "astronomical": "0.0146323291",
                "lunar": "5.6919760199",
                "kilometers": "2188965.266499017",
                "miles": "1360159.9451477546"
            },
            "orbiting_body": "Earth"
        },
        {
            "close_approach_date": "2040-12-09",
            "close_approach_date_full": "2040-Dec-09 16:18",
            "epoch_date_close_approach": 2238682680000,
            "relative_velocity": {
                "kilometers_per_second": "14.9798802535",
                "kilometers_per_hour": "53927.568912424",
                "miles_per_hour": "33508.4941389448"
            },
            "miss_distance": {
                "astronomical": "0.190500788",
                "lunar": "74.104806532",
                "kilometers": "28498512.11812156",
                "miles": "17708154.292175128"
            },
            "orbiting_body": "Earth"
        },
        {
            "close_approach_date": "2051-12-21",
            "close_approach_date_full": "2051-Dec-21 20:08",
            "epoch_date_close_approach": 2586802080000,
            "relative_velocity": {
                "kilometers_per_second": "17.964740253",
                "kilometers_per_hour": "64673.064910778",
                "miles_per_hour": "40185.3274719221"
            },
            "miss_distance": {
                "astronomical": "0.3476664531",
                "lunar": "135.2422502559",
                "kilometers": "52010160.854214897",
                "miles": "32317615.3670716986"
            },
            "orbiting_body": "Earth"
        }
    ],
    "orbital_data": {
        "orbit_id": "3",
        "orbit_determination_date": "2018-12-06 06:55:20",
        "first_observation_date": "2018-11-27",
        "last_observation_date": "2018-11-30",
        "data_arc_in_days": 3,
        "observations_used": 40,
        "orbit_uncertainty": "7",
        "minimum_orbit_intersection": ".0115407",
        "jupiter_tisserand_invariant": "4.044",
        "epoch_osculation": "2459000.5",
        "eccentricity": ".4106680906648323",
        "semi_major_axis": "1.692593155820794",
        "inclination": "21.21618652540067",
        "ascending_node_longitude": "62.59249697028584",
        "orbital_period": "804.3170916492801",
        "perihelion_distance": ".9974991562475056",
        "perihelion_argument": "355.7969951836232",
        "aphelion_distance": "2.387687155394083",
        "perihelion_time": "2459248.879132367005",
        "mean_anomaly": "248.8293080173514",
        "mean_motion": ".447584669948773",
        "equinox": "J2000",
        "orbit_class": {
            "orbit_class_type": "APO",
            "orbit_class_description": "Near-Earth asteroid orbits which cross the Earth’s orbit similar to that of 1862 Apollo",
            "orbit_class_range": "a (semi-major axis) > 1.0 AU; q (perihelion) < 1.017 AU"
        }
    },
    "is_sentry_object": false
}